0 THORAD AGENA D DEB
1 06765U 70025NG  13283.27809030  .00000144  00000-0  27912-3 0  5375
2 06765 099.7893 193.4248 0016490 020.4205 135.2515 13.53900075143862
0 THORAD AGENA D DEB
1 06765U 70025NG  13287.26303368  .00000173  00000-0  32147-3 0  5380
2 06765 099.7898 197.3660 0016369 010.9052 117.6231 13.53901373144409
0 THORAD AGENA D DEB
1 06765U 70025NG  13289.26331361  .00000178  00000-0  32841-3 0  5393
2 06765 099.7899 199.3445 0016273 006.0966 146.9060 13.53902384144674
0 THORAD AGENA D DEB
1 06765U 70025NG  13291.32667003  .00000196  00000-0  35547-3 0  5406
2 06765 099.7901 201.3855 0016182 000.9736 123.7924 13.53903141144959
0 THORAD AGENA D DEB
1 06765U 70025NG  13293.74448602  .00000207  00000-0  37113-3 0  5411
2 06765 099.7896 203.7772 0016119 354.9744 028.3352 13.53904485145281
0 THORAD AGENA D DEB
1 06765U 70025NG  13295.98392385  .00000200  00000-0  36190-3 0  5423
2 06765 099.7897 205.9923 0016027 349.5527 143.3298 13.53905906145580
